CCSDS_OMM_VERS = 2.0
CREATION_DATE  = 
ORIGINATOR     = 

OBJECT_NAME    = IDEFIX & ARIANE 42P R/B
OBJECT_ID      = 2002-021B
CENTER_NAME    = EARTH
REF_FRAME      = TEME
TIME_SYSTEM    = UTC
MEAN_ELEMENT_THEORY = SGP/SGP4

EPOCH          = 2026-02-17T17:00:06.476256
MEAN_MOTION    = 14.31011116
ECCENTRICITY   = .001067
INCLINATION    = 98.5852
RA_OF_ASC_NODE = 347.5559
ARG_OF_PERICENTER = 244.8580
MEAN_ANOMALY   = 115.1497

EPHEMERIS_TYPE = 0
CLASSIFICATION_TYPE = U
NORAD_CAT_ID   = 27422
ELEMENT_SET_NO = 999
REV_AT_EPOCH   = 24116
BSTAR          = .11154E-3
MEAN_MOTION_DOT = .25E-5
MEAN_MOTION_DDOT = 0

CCSDS_OMM_VERS = 2.0
CREATION_DATE  = 
ORIGINATOR     = 

OBJECT_NAME    = AQUA
OBJECT_ID      = 2002-022A
CENTER_NAME    = EARTH
REF_FRAME      = TEME
TIME_SYSTEM    = UTC
MEAN_ELEMENT_THEORY = SGP/SGP4

EPOCH          = 2026-02-17T21:32:34.539936
MEAN_MOTION    = 14.61925496
ECCENTRICITY   = .0001176
INCLINATION    = 98.4139
RA_OF_ASC_NODE = 15.9079
ARG_OF_PERICENTER = 47.7562
MEAN_ANOMALY   = 335.8573

EPHEMERIS_TYPE = 0
CLASSIFICATION_TYPE = U
NORAD_CAT_ID   = 27424
ELEMENT_SET_NO = 999
REV_AT_EPOCH   = 26584
BSTAR          = .20059E-3
MEAN_MOTION_DOT = .955E-5
MEAN_MOTION_DDOT = 0

CCSDS_OMM_VERS = 2.0
CREATION_DATE  = 
ORIGINATOR     = 

OBJECT_NAME    = CZ-4B R/B
OBJECT_ID      = 2002-024C
CENTER_NAME    = EARTH
REF_FRAME      = TEME
TIME_SYSTEM    = UTC
MEAN_ELEMENT_THEORY = SGP/SGP4

EPOCH          = 2026-02-17T17:03:56.122272
MEAN_MOTION    = 14.14543837
ECCENTRICITY   = .0051186
INCLINATION    = 98.8886
RA_OF_ASC_NODE = 102.2141
ARG_OF_PERICENTER = 80.1613
MEAN_ANOMALY   = 30.1690

EPHEMERIS_TYPE = 0
CLASSIFICATION_TYPE = U
NORAD_CAT_ID   = 27432
ELEMENT_SET_NO = 999
REV_AT_EPOCH   = 22641
BSTAR          = .44076E-4
MEAN_MOTION_DOT = .42E-6
MEAN_MOTION_DDOT = 0

CCSDS_OMM_VERS = 2.0
CREATION_DATE  = 
ORIGINATOR     = 

OBJECT_NAME    = MIDORI II (ADEOS-II)
OBJECT_ID      = 2002-056A
CENTER_NAME    = EARTH
REF_FRAME      = TEME
TIME_SYSTEM    = UTC
MEAN_ELEMENT_THEORY = SGP/SGP4

EPOCH          = 2026-02-17T18:46:24.652992
MEAN_MOTION    = 14.29269643
ECCENTRICITY   = .0002138
INCLINATION    = 98.7735
RA_OF_ASC_NODE = 7.1269
ARG_OF_PERICENTER = 70.1629
MEAN_ANOMALY   = 289.9783

EPHEMERIS_TYPE = 0
CLASSIFICATION_TYPE = U
NORAD_CAT_ID   = 27597
ELEMENT_SET_NO = 999
REV_AT_EPOCH   = 20745
BSTAR          = .12352E-3
MEAN_MOTION_DOT = .269E-5
MEAN_MOTION_DDOT = 0

CCSDS_OMM_VERS = 2.0
CREATION_DATE  = 
ORIGINATOR     = 

OBJECT_NAME    = H-2A R/B
OBJECT_ID      = 2002-056E
CENTER_NAME    = EARTH
REF_FRAME      = TEME
TIME_SYSTEM    = UTC
MEAN_ELEMENT_THEORY = SGP/SGP4

EPOCH          = 2026-02-17T11:28:50.947680
MEAN_MOTION    = 14.33746352
ECCENTRICITY   = .00692868
INCLINATION    = 98.3167
RA_OF_ASC_NODE = 9.6181
ARG_OF_PERICENTER = 221.1363
MEAN_ANOMALY   = 248.2322

EPHEMERIS_TYPE = 0
CLASSIFICATION_TYPE = U
NORAD_CAT_ID   = 27601
ELEMENT_SET_NO = 999
REV_AT_EPOCH   = 21121
BSTAR          = .11479318E-3
MEAN_MOTION_DOT = .285E-5
MEAN_MOTION_DDOT = 0

CCSDS_OMM_VERS = 2.0
CREATION_DATE  = 
ORIGINATOR     = 

OBJECT_NAME    = CZ-4B R/B
OBJECT_ID      = 2003-049C
CENTER_NAME    = EARTH
REF_FRAME      = TEME
TIME_SYSTEM    = UTC
MEAN_ELEMENT_THEORY = SGP/SGP4

EPOCH          = 2026-02-17T13:52:43.017888
MEAN_MOTION    = 14.54998015
ECCENTRICITY   = .0047095
INCLINATION    = 98.6858
RA_OF_ASC_NODE = 42.6975
ARG_OF_PERICENTER = 293.8152
MEAN_ANOMALY   = 65.8111

EPHEMERIS_TYPE = 0
CLASSIFICATION_TYPE = U
NORAD_CAT_ID   = 28059
ELEMENT_SET_NO = 999
REV_AT_EPOCH   = 18367
BSTAR          = .10519E-3
MEAN_MOTION_DOT = .407E-5
MEAN_MOTION_DDOT = 0

CCSDS_OMM_VERS = 2.0
CREATION_DATE  = 
ORIGINATOR     = 

OBJECT_NAME    = CZ-2C R/B
OBJECT_ID      = 2004-012C
CENTER_NAME    = EARTH
REF_FRAME      = TEME
TIME_SYSTEM    = UTC
MEAN_ELEMENT_THEORY = SGP/SGP4

EPOCH          = 2026-02-17T19:54:39.569760
MEAN_MOTION    = 15.62161958
ECCENTRICITY   = .0014963
INCLINATION    = 97.7280
RA_OF_ASC_NODE = 112.2748
ARG_OF_PERICENTER = 27.4378
MEAN_ANOMALY   = 332.7666

EPHEMERIS_TYPE = 0
CLASSIFICATION_TYPE = U
NORAD_CAT_ID   = 28222
ELEMENT_SET_NO = 999
REV_AT_EPOCH   = 20117
BSTAR          = .52976E-3
MEAN_MOTION_DOT = .46807E-3
MEAN_MOTION_DDOT = 0

CCSDS_OMM_VERS = 2.0
CREATION_DATE  = 
ORIGINATOR     = 

OBJECT_NAME    = SL-16 R/B
OBJECT_ID      = 2004-021B
CENTER_NAME    = EARTH
REF_FRAME      = TEME
TIME_SYSTEM    = UTC
MEAN_ELEMENT_THEORY = SGP/SGP4

EPOCH          = 2026-02-17T15:46:49.208736
MEAN_MOTION    = 14.14595253
ECCENTRICITY   = .000324
INCLINATION    = 70.9989
RA_OF_ASC_NODE = 274.5339
ARG_OF_PERICENTER = 57.9240
MEAN_ANOMALY   = 302.2197

EPHEMERIS_TYPE = 0
CLASSIFICATION_TYPE = U
NORAD_CAT_ID   = 28353
ELEMENT_SET_NO = 999
REV_AT_EPOCH   = 12000
BSTAR          = .19704E-3
MEAN_MOTION_DOT = .331E-5
MEAN_MOTION_DDOT = 0

CCSDS_OMM_VERS = 2.0
CREATION_DATE  = 
ORIGINATOR     = 

OBJECT_NAME    = CZ-4B R/B
OBJECT_ID      = 2004-035C
CENTER_NAME    = EARTH
REF_FRAME      = TEME
TIME_SYSTEM    = UTC
MEAN_ELEMENT_THEORY = SGP/SGP4

EPOCH          = 2026-02-17T14:52:21.745632
MEAN_MOTION    = 15.28679514
ECCENTRICITY   = .0033463
INCLINATION    = 97.3528
RA_OF_ASC_NODE = 83.1055
ARG_OF_PERICENTER = 42.5730
MEAN_ANOMALY   = 317.8095

EPHEMERIS_TYPE = 0
CLASSIFICATION_TYPE = U
NORAD_CAT_ID   = 28415
ELEMENT_SET_NO = 999
REV_AT_EPOCH   = 17684
BSTAR          = .25562E-3
MEAN_MOTION_DOT = .7172E-4
MEAN_MOTION_DDOT = 0

CCSDS_OMM_VERS = 2.0
CREATION_DATE  = 
ORIGINATOR     = 

OBJECT_NAME    = CZ-2C R/B
OBJECT_ID      = 2004-046B
CENTER_NAME    = EARTH
REF_FRAME      = TEME
TIME_SYSTEM    = UTC
MEAN_ELEMENT_THEORY = SGP/SGP4

EPOCH          = 2026-02-17T17:05:15.471168
MEAN_MOTION    = 14.26984795
ECCENTRICITY   = .0138659
INCLINATION    = 98.1995
RA_OF_ASC_NODE = 324.9374
ARG_OF_PERICENTER = 213.5681
MEAN_ANOMALY   = 145.6658

EPHEMERIS_TYPE = 0
CLASSIFICATION_TYPE = U
NORAD_CAT_ID   = 28480
ELEMENT_SET_NO = 999
REV_AT_EPOCH   = 10565
BSTAR          = .51827E-4
MEAN_MOTION_DOT = .98E-6
MEAN_MOTION_DDOT = 0

CCSDS_OMM_VERS = 2.0
CREATION_DATE  = 
ORIGINATOR     = 

OBJECT_NAME    = ARIANE 5 R/B
OBJECT_ID      = 2004-049H
CENTER_NAME    = EARTH
REF_FRAME      = TEME
TIME_SYSTEM    = UTC
MEAN_ELEMENT_THEORY = SGP/SGP4

EPOCH          = 2026-02-17T10:07:32.084832
MEAN_MOTION    = 14.85225370
ECCENTRICITY   = .00852521
INCLINATION    = 98.2593
RA_OF_ASC_NODE = 216.1250
ARG_OF_PERICENTER = 57.3020
MEAN_ANOMALY   = 303.6378

EPHEMERIS_TYPE = 0
CLASSIFICATION_TYPE = U
NORAD_CAT_ID   = 28499
ELEMENT_SET_NO = 999
REV_AT_EPOCH   = 14278
BSTAR          = .10731239E-3
MEAN_MOTION_DOT = .918E-5
MEAN_MOTION_DDOT = 0

CCSDS_OMM_VERS = 2.0
CREATION_DATE  = 
ORIGINATOR     = 

OBJECT_NAME    = CZ-2D R/B
OBJECT_ID      = 2005-024B
CENTER_NAME    = EARTH
REF_FRAME      = TEME
TIME_SYSTEM    = UTC
MEAN_ELEMENT_THEORY = SGP/SGP4

EPOCH          = 2026-02-17T13:22:11.549568
MEAN_MOTION    = 15.58312243
ECCENTRICITY   = .0007684
INCLINATION    = 97.3604
RA_OF_ASC_NODE = 62.9938
ARG_OF_PERICENTER = 94.3884
MEAN_ANOMALY   = 265.8250

EPHEMERIS_TYPE = 0
CLASSIFICATION_TYPE = U
NORAD_CAT_ID   = 28738
ELEMENT_SET_NO = 999
REV_AT_EPOCH   = 13664
BSTAR          = .42917E-3
MEAN_MOTION_DOT = .32539E-3
MEAN_MOTION_DDOT = 0

