IDEFIX & ARIANE 42P R/B 
1 27422U 02021B   26048.70840829  .00000250  00000+0  11154-3 0  9991
2 27422  98.5852 347.5559 0010670 244.8580 115.1497 14.31011116241160
AQUA                    
1 27424U 02022A   26048.89762199  .00000955  00000+0  20059-3 0  9993
2 27424  98.4139  15.9079 0001176  47.7562 335.8573 14.61925496265848
CZ-4B R/B               
1 27432U 02024C   26048.71106623  .00000042  00000+0  44076-4 0  9992
2 27432  98.8886 102.2141 0051186  80.1613  30.1690 14.14543837226412
MIDORI II (ADEOS-II)    
1 27597U 02056A   26048.78222978  .00000269  00000+0  12352-3 0  9990
2 27597  98.7735   7.1269 0002138  70.1629 289.9783 14.29269643207455
H-2A R/B                
1 27601U 02056E   26048.47836745  .00000285  00000+0  11479-3 0  9992
2 27601  98.3167   9.6181 0069286 221.1363 248.2322 14.33746352211214
CZ-4B R/B               
1 28059U 03049C   26048.57827567  .00000407  00000+0  10519-3 0  9996
2 28059  98.6858  42.6975 0047095 293.8152  65.8111 14.54998015183671
CZ-2C R/B               
1 28222U 04012C   26048.82962465  .00046807  00000+0  52976-3 0  9991
2 28222  97.7280 112.2748 0014963  27.4378 332.7666 15.62161958201178
SL-16 R/B               
1 28353U 04021B   26048.65751399  .00000331  00000+0  19704-3 0  9993
2 28353  70.9989 274.5339 0003240  57.9240 302.2197 14.14595253120000
CZ-4B R/B               
1 28415U 04035C   26048.61969613  .00007172  00000+0  25562-3 0  9992
2 28415  97.3528  83.1055 0033463  42.5730 317.8095 15.28679514176845
CZ-2C R/B               
1 28480U 04046B   26048.71198462  .00000098  00000+0  51827-4 0  9997
2 28480  98.1995 324.9374 0138659 213.5681 145.6658 14.26984795105652
ARIANE 5 R/B            
1 28499U 04049H   26048.42189913  .00000918  00000+0  10731-3 0  9998
2 28499  98.2593 216.1250 0085252  57.3020 303.6378 14.85225370142785
CZ-2D R/B               
1 28738U 05024B   26048.55707812  .00032539  00000+0  42917-3 0  9991
2 28738  97.3604  62.9938 0007684  94.3884 265.8250 15.58312243136649
